[{"OBJECT_NAME":"GEOSCAN 3 (RS92S3)","OBJECT_ID":"2025-155T","EPOCH":"2026-03-09T22:52:10.587648","MEAN_MOTION":15.31696739,"ECCENTRICITY":0.00068078,"INCLINATION":97.4455,"RA_OF_ASC_NODE":37.9971,"ARG_OF_PERICENTER":154.1387,"MEAN_ANOMALY":206.0196,"EPHEMERIS_TYPE":0,"CLASSIFICATION_TYPE":"U","NORAD_CAT_ID":64893,"ELEMENT_SET_NO":999,"REV_AT_EPOCH":6564,"BSTAR":0.00078414081,"MEAN_MOTION_DOT":0.00023985,"MEAN_MOTION_DDOT":0},{"OBJECT_NAME":"STARLINK-36469","OBJECT_ID":"2026-003AC","EPOCH":"2026-03-09T10:54:22.152384","MEAN_MOTION":15.27651087,"ECCENTRICITY":0.00012926,"INCLINATION":43.0002,"RA_OF_ASC_NODE":228.7601,"ARG_OF_PERICENTER":271.6538,"MEAN_ANOMALY":88.4165,"EPHEMERIS_TYPE":0,"CLASSIFICATION_TYPE":"U","NORAD_CAT_ID":67360,"ELEMENT_SET_NO":999,"REV_AT_EPOCH":878,"BSTAR":0.0016721967,"MEAN_MOTION_DOT":0.00046142,"MEAN_MOTION_DDOT":0}]
